IRIDIUM 39              
1 25042U 97069D   26024.67617357  .00001254  00000+0  32125-3 0  9997
2 25042  86.3927 116.2196 0015557 288.1221  71.8288 14.49586063481040
IRIDIUM 38              
1 25043U 97069E   26024.76257478  .00000916  00000+0  29425-3 0  9995
2 25043  86.4002 140.0216 0004037  93.6202 266.5457 14.38369548477808
IRIDIUM 42              
1 25077U 97077A   26025.04212321  .00000867  00000+0  28858-3 0  9995
2 25077  86.4010 146.3474 0002864  99.4460 260.7061 14.36580999473047
IRIDIUM 44              
1 25078U 97077B   26024.74454943  .00000668  00000+0  20401-3 0  9995
2 25078  86.3990 127.8115 0003175  60.4293 299.7222 14.40476598475595
IRIDIUM 45              
1 25104U 97082A   26024.76435554  .00032022  00000+0  84425-3 0  9995
2 25104  86.3542 299.4321 0090539 213.5478 146.0021 15.34179476485860
IRIDIUM 24              
1 25105U 97082B   26024.84556186  .00001017  00000+0  30138-3 0  9992
2 25105  86.3938 346.2621 0013467  69.0258 291.2382 14.42384382475166
IRIDIUM 51              
1 25262U 98018A   26024.74324281  .00234906  00000+0  15069-2 0  9994
2 25262  86.3693 303.9872 0045470 100.2835 260.3569 15.74161554481389
IRIDIUM 57              
1 25273U 98019B   26025.11223360  .00000587  00000+0  19524-3 0  9992
2 25273  86.3919  52.1872 0002356  89.5719 270.5748 14.36089306456634
